[
    {
        "Altitude(m)": 575113.9216292616,
        "Argument of Periapsis(deg)": 0.0,
        "Eccentricity": 0.0,
        "Inclination(deg)": 97.0,
        "Latitude(deg)": -31.04265274705064,
        "Longitude(deg)": 75.81583565351231,
        "Mean Anomaly(deg)": 211.0345,
        "RAAN(deg)": 0.0,
        "Satellite Name": "Starlink Shell 3 1618",
        "Satellite Number": 1618,
        "Semi-Major Axis(m)": 6938478.169268562,
        "Time(s)": 0
    },
    {
        "Altitude(m)": 575357.51337929,
        "Argument of Periapsis(deg)": -0.0003965466804030246,
        "Eccentricity": 0.0,
        "Inclination(deg)": 97.0,
        "Latitude(deg)": -31.662472692318328,
        "Longitude(deg)": 75.6700833125326,
        "Mean Anomaly(deg)": 211.65997619770505,
        "RAAN(deg)": 0.00010433427400896087,
        "Satellite Name": "Starlink Shell 3 1618",
        "Satellite Number": 1618,
        "Semi-Major Axis(m)": 6938478.169268562,
        "Time(s)": 10
    },
    {
        "Altitude(m)": 575602.5207441674,
        "Argument of Periapsis(deg)": -0.0007930933608060492,
        "Eccentricity": 0.0,
        "Inclination(deg)": 97.0,
        "Latitude(deg)": -32.282118317108946,
        "Longitude(deg)": 75.5229481737592,
        "Mean Anomaly(deg)": 212.2854523954101,
        "RAAN(deg)": 0.00020866854801792175,
        "Satellite Name": "Starlink Shell 3 1618",
        "Satellite Number": 1618,
        "Semi-Major Axis(m)": 6938478.169268562,
        "Time(s)": 20
    },
    {
        "Altitude(m)": 575848.8510969715,
        "Argument of Periapsis(deg)": -0.001189640041209074,
        "Eccentricity": 0.0,
        "Inclination(deg)": 97.0,
        "Latitude(deg)": -32.90158568798342,
        "Longitude(deg)": 75.37437748430192,
        "Mean Anomaly(deg)": 212.91092859311513,
        "RAAN(deg)": 0.0003130028220268826,
        "Satellite Name": "Starlink Shell 3 1618",
        "Satellite Number": 1618,
        "Semi-Major Axis(m)": 6938478.169268562,
        "Time(s)": 30
    },
    {
        "Altitude(m)": 576096.4110463364,
        "Argument of Periapsis(deg)": -0.0015861867216120985,
        "Eccentricity": 0.0,
        "Inclination(deg)": 97.0,
        "Latitude(deg)": -33.52087078128935,
        "Longitude(deg)": 75.22431690321595,
        "Mean Anomaly(deg)": 213.53640479082017,
        "RAAN(deg)": 0.0004173370960358435,
        "Satellite Name": "Starlink Shell 3 1618",
        "Satellite Number": 1618,
        "Semi-Major Axis(m)": 6938478.169268562,
        "Time(s)": 40
    },
    {
        "Altitude(m)": 576345.1064790733,
        "Argument of Periapsis(deg)": -0.0019827334020151234,
        "Eccentricity": 0.0,
        "Inclination(deg)": 97.0,
        "Latitude(deg)": -34.13996947612698,
        "Longitude(deg)": 75.07270937524605,
        "Mean Anomaly(deg)": 214.16188098852524,
        "RAAN(deg)": 0.0005216713700448044,
        "Satellite Name": "Starlink Shell 3 1618",
        "Satellite Number": 1618,
        "Semi-Major Axis(m)": 6938478.169268562,
        "Time(s)": 50
    },
    {
        "Altitude(m)": 576594.8426030905,
        "Argument of Periapsis(deg)": -0.002379280082418148,
        "Eccentricity": 0.0,
        "Inclination(deg)": 97.0,
        "Latitude(deg)": -34.75887754681535,
        "Longitude(deg)": 74.91949550986901,
        "Mean Anomaly(deg)": 214.78735718623028,
        "RAAN(deg)": 0.0006260056440537652,
        "Satellite Name": "Starlink Shell 3 1618",
        "Satellite Number": 1618,
        "Semi-Major Axis(m)": 6938478.169268562,
        "Time(s)": 60
    },
    {
        "Altitude(m)": 576845.5239906076,
        "Argument of Periapsis(deg)": -0.002775826762821173,
        "Eccentricity": 0.0,
        "Inclination(deg)": 97.0,
        "Latitude(deg)": -35.37759065482592,
        "Longitude(deg)": 74.76461395217814,
        "Mean Anomaly(deg)": 215.41283338393532,
        "RAAN(deg)": 0.0007303399180627261,
        "Satellite Name": "Starlink Shell 3 1618",
        "Satellite Number": 1618,
        "Semi-Major Axis(m)": 6938478.169268562,
        "Time(s)": 70
    },
    {
        "Altitude(m)": 577097.0546216276,
        "Argument of Periapsis(deg)": -0.003172373443224197,
        "Eccentricity": 0.0,
        "Inclination(deg)": 97.0,
        "Latitude(deg)": -35.996104340141066,
        "Longitude(deg)": 74.60800023210113,
        "Mean Anomaly(deg)": 216.03830958164036,
        "RAAN(deg)": 0.000834674192071687,
        "Satellite Name": "Starlink Shell 3 1618",
        "Satellite Number": 1618,
        "Semi-Major Axis(m)": 6938478.169268562,
        "Time(s)": 80
    },
    {
        "Altitude(m)": 577349.3379276417,
        "Argument of Periapsis(deg)": -0.0035689201236272223,
        "Eccentricity": 0.0,
        "Inclination(deg)": 97.0,
        "Latitude(deg)": -36.61441401199284,
        "Longitude(deg)": 74.44958711700077,
        "Mean Anomaly(deg)": 216.6637857793454,
        "RAAN(deg)": 0.0009390084660806479,
        "Satellite Name": "Starlink Shell 3 1618",
        "Satellite Number": 1618,
        "Semi-Major Axis(m)": 6938478.169268562,
        "Time(s)": 90
    },
    {
        "Altitude(m)": 577602.2768355587,
        "Argument of Periapsis(deg)": -0.003965466804030247,
        "Eccentricity": 0.0,
        "Inclination(deg)": 97.0,
        "Latitude(deg)": -37.232514938933996,
        "Longitude(deg)": 74.28930495403277,
        "Mean Anomaly(deg)": 217.28926197705044,
        "RAAN(deg)": 0.0010433427400896088,
        "Satellite Name": "Starlink Shell 3 1618",
        "Satellite Number": 1618,
        "Semi-Major Axis(m)": 6938478.169268562,
        "Time(s)": 100
    },
    {
        "Altitude(m)": 577855.773811824,
        "Argument of Periapsis(deg)": -0.004362013484433271,
        "Eccentricity": 0.0,
        "Inclination(deg)": 97.0,
        "Latitude(deg)": -37.85040223818974,
        "Longitude(deg)": 74.12708048856358,
        "Mean Anomaly(deg)": 217.9147381747555,
        "RAAN(deg)": 0.0011476770140985695,
        "Satellite Name": "Starlink Shell 3 1618",
        "Satellite Number": 1618,
        "Semi-Major Axis(m)": 6938478.169268562,
        "Time(s)": 110
    },
    {
        "Altitude(m)": 578109.7309067086,
        "Argument of Periapsis(deg)": -0.004758560164836296,
        "Eccentricity": 0.0,
        "Inclination(deg)": 97.0,
        "Latitude(deg)": -38.46807086423027,
        "Longitude(deg)": 73.96283718349324,
        "Mean Anomaly(deg)": 218.54021437246055,
        "RAAN(deg)": 0.0012520112881075304,
        "Satellite Name": "Starlink Shell 3 1618",
        "Satellite Number": 1618,
        "Semi-Major Axis(m)": 6938478.169268562,
        "Time(s)": 120
    },
    {
        "Altitude(m)": 578364.0497987628,
        "Argument of Periapsis(deg)": -0.005155106845239321,
        "Eccentricity": 0.0,
        "Inclination(deg)": 97.0,
        "Latitude(deg)": -39.08551559650241,
        "Longitude(deg)": 73.79649552562763,
        "Mean Anomaly(deg)": 219.1656905701656,
        "RAAN(deg)": 0.0013563455621164913,
        "Satellite Name": "Starlink Shell 3 1618",
        "Satellite Number": 1618,
        "Semi-Major Axis(m)": 6938478.169268562,
        "Time(s)": 130
    },
    {
        "Altitude(m)": 578618.6318393908,
        "Argument of Periapsis(deg)": -0.005551653525642346,
        "Eccentricity": 0.0,
        "Inclination(deg)": 97.0,
        "Latitude(deg)": -39.70273102625162,
        "Longitude(deg)": 73.62797180515503,
        "Mean Anomaly(deg)": 219.79116676787064,
        "RAAN(deg)": 0.0014606798361254522,
        "Satellite Name": "Starlink Shell 3 1618",
        "Satellite Number": 1618,
        "Semi-Major Axis(m)": 6938478.169268562,
        "Time(s)": 140
    },
    {
        "Altitude(m)": 578873.3780975117,
        "Argument of Periapsis(deg)": -0.005948200206045371,
        "Eccentricity": 0.0,
        "Inclination(deg)": 97.0,
        "Latitude(deg)": -40.31971154235734,
        "Longitude(deg)": 73.45717839279143,
        "Mean Anomaly(deg)": 220.41664296557568,
        "RAAN(deg)": 0.0015650141101344129,
        "Satellite Name": "Starlink Shell 3 1618",
        "Satellite Number": 1618,
        "Semi-Major Axis(m)": 6938478.169268562,
        "Time(s)": 150
    },
    {
        "Altitude(m)": 579128.1894043556,
        "Argument of Periapsis(deg)": -0.006344746886448394,
        "Eccentricity": 0.0,
        "Inclination(deg)": 97.0,
        "Latitude(deg)": -40.93645131609924,
        "Longitude(deg)": 73.28402400043466,
        "Mean Anomaly(deg)": 221.04211916328074,
        "RAAN(deg)": 0.001669348384143374,
        "Satellite Name": "Starlink Shell 3 1618",
        "Satellite Number": 1618,
        "Semi-Major Axis(m)": 6938478.169268562,
        "Time(s)": 160
    },
    {
        "Altitude(m)": 579382.966398265,
        "Argument of Periapsis(deg)": -0.00674129356685142,
        "Eccentricity": 0.0,
        "Inclination(deg)": 97.0,
        "Latitude(deg)": -41.55294428476373,
        "Longitude(deg)": 73.10841241104042,
        "Mean Anomaly(deg)": 221.66759536098579,
        "RAAN(deg)": 0.001773682658152335,
        "Satellite Name": "Starlink Shell 3 1618",
        "Satellite Number": 1618,
        "Semi-Major Axis(m)": 6938478.169268562,
        "Time(s)": 170
    },
    {
        "Altitude(m)": 579637.6095695833,
        "Argument of Periapsis(deg)": -0.007137840247254445,
        "Eccentricity": 0.0,
        "Inclination(deg)": 97.0,
        "Latitude(deg)": -42.1691841339888,
        "Longitude(deg)": 72.93024270190962,
        "Mean Anomaly(deg)": 222.2930715586908,
        "RAAN(deg)": 0.0018780169321612958,
        "Satellite Name": "Starlink Shell 3 1618",
        "Satellite Number": 1618,
        "Semi-Major Axis(m)": 6938478.169268562,
        "Time(s)": 180
    }
]